{
  "type": "FeatureCollection",
  "features": [
    {
      "type": "Feature",
      "properties": {
        "norad_id": 30996,
        "name": "FENGYUN 1C DEB",
        "group": "fengyun-1c-debris",
        "lat": 76.29886717070768,
        "lon": -136.05193385950648,
        "alt_km": 801.6530941499877,
        "timestamp": "2025-12-24T18:55:56.348284+00:00",
        "meta_object_name": "FENGYUN 1C DEB",
        "meta_object_id": "1999-025BCN",
        "meta_epoch": "2025-12-23T04:49:10.994880",
        "meta_mean_motion": 14.35461354,
        "meta_eccentricity": 0.00495675,
        "meta_inclination": 98.9439,
        "meta_ra_of_asc_node": 262.5406,
        "meta_arg_of_pericenter": 260.8084,
        "meta_mean_anomaly": 257.09,
        "meta_ephemeris_type": 0,
        "meta_classification_type": "U",
        "meta_norad_cat_id": 30996,
        "meta_element_set_no": 999,
        "meta_rev_at_epoch": 97713,
        "meta_bstar": 0.00085759981,
        "meta_mean_motion_dot": 2.452e-05,
        "meta_mean_motion_ddot": 0,
        "tle_line1": "1 30996U 99025BCN 25357.20082170  .00002452  00000+0  85760-3 0  9995",
        "tle_line2": "2 30996  98.9439 262.5406 0049567 260.8084 257.0900 14.35461354977131"
      },
      "geometry": {
        "type": "Point",
        "coordinates": [
          -136.05193385950648,
          76.29886717070768
        ]
      }
    },
    {
      "type": "Feature",
      "properties": {
        "norad_id": 30998,
        "name": "FENGYUN 1C DEB",
        "group": "fengyun-1c-debris",
        "lat": -78.42359235207475,
        "lon": 132.1553845568547,
        "alt_km": 742.9809637176359,
        "timestamp": "2025-12-24T18:55:56.348296+00:00",
        "meta_object_name": "FENGYUN 1C DEB",
        "meta_object_id": "1999-025BCQ",
        "meta_epoch": "2025-12-24T04:40:14.155392",
        "meta_mean_motion": 14.48088569,
        "meta_eccentricity": 0.00128262,
        "meta_inclination": 98.8287,
        "meta_ra_of_asc_node": 82.1812,
        "meta_arg_of_pericenter": 164.5713,
        "meta_mean_anomaly": 256.7613,
        "meta_ephemeris_type": 0,
        "meta_classification_type": "U",
        "meta_norad_cat_id": 30998,
        "meta_element_set_no": 999,
        "meta_rev_at_epoch": 97356,
        "meta_bstar": 0.0026052527,
        "meta_mean_motion_dot": 9.667e-05,
        "meta_mean_motion_ddot": 0,
        "tle_line1": "1 30998U 99025BCQ 25358.19460828  .00009667  00000+0  26053-2 0  9990",
        "tle_line2": "2 30998  98.8287  82.1812 0012826 164.5713 256.7613 14.48088569973564"
      },
      "geometry": {
        "type": "Point",
        "coordinates": [
          132.1553845568547,
          -78.42359235207475
        ]
      }
    },
    {
      "type": "Feature",
      "properties": {
        "norad_id": 30999,
        "name": "FENGYUN 1C DEB",
        "group": "fengyun-1c-debris",
        "lat": 53.88802865742533,
        "lon": 6.326742424918387,
        "alt_km": 772.4911959662095,
        "timestamp": "2025-12-24T18:55:56.348308+00:00",
        "meta_object_name": "FENGYUN 1C DEB",
        "meta_object_id": "1999-025BCR",
        "meta_epoch": "2025-12-24T05:11:01.343328",
        "meta_mean_motion": 14.58480545,
        "meta_eccentricity": 0.01126272,
        "meta_inclination": 99.0912,
        "meta_ra_of_asc_node": 173.0217,
        "meta_arg_of_pericenter": 303.0336,
        "meta_mean_anomaly": 56.008,
        "meta_ephemeris_type": 0,
        "meta_classification_type": "U",
        "meta_norad_cat_id": 30999,
        "meta_element_set_no": 999,
        "meta_rev_at_epoch": 98998,
        "meta_bstar": 0.00066653863,
        "meta_mean_motion_dot": 3.316e-05,
        "meta_mean_motion_ddot": 0,
        "tle_line1": "1 30999U 99025BCR 25358.21598777  .00003316  00000+0  66654-3 0  9996",
        "tle_line2": "2 30999  99.0912 173.0217 0112627 303.0336  56.0080 14.58480545989986"
      },
      "geometry": {
        "type": "Point",
        "coordinates": [
          6.326742424918387,
          53.88802865742533
        ]
      }
    },
    {
      "type": "Feature",
      "properties": {
        "norad_id": 31000,
        "name": "FENGYUN 1C DEB",
        "group": "fengyun-1c-debris",
        "lat": 8.607697314684277,
        "lon": -153.3193645382245,
        "alt_km": 952.9258984421976,
        "timestamp": "2025-12-24T18:55:56.348319+00:00",
        "meta_object_name": "FENGYUN 1C DEB",
        "meta_object_id": "1999-025BCS",
        "meta_epoch": "2025-12-23T13:52:43.911264",
        "meta_mean_motion": 14.09665871,
        "meta_eccentricity": 0.01648562,
        "meta_inclination": 97.565,
        "meta_ra_of_asc_node": 24.5093,
        "meta_arg_of_pericenter": 34.6931,
        "meta_mean_anomaly": 115.468,
        "meta_ephemeris_type": 0,
        "meta_classification_type": "U",
        "meta_norad_cat_id": 31000,
        "meta_element_set_no": 999,
        "meta_rev_at_epoch": 70109,
        "meta_bstar": 0.00050151864,
        "meta_mean_motion_dot": 9.64e-06,
        "meta_mean_motion_ddot": 0,
        "tle_line1": "1 31000U 99025BCS 25357.57828601  .00000964  00000+0  50152-3 0  9992",
        "tle_line2": "2 31000  97.5650  24.5093 0164856  34.6931 115.4680 14.09665871701096"
      },
      "geometry": {
        "type": "Point",
        "coordinates": [
          -153.3193645382245,
          8.607697314684277
        ]
      }
    },
    {
      "type": "Feature",
      "properties": {
        "norad_id": 31001,
        "name": "FENGYUN 1C DEB",
        "group": "fengyun-1c-debris",
        "lat": -60.57102469756368,
        "lon": -110.43725000089547,
        "alt_km": 860.956704564549,
        "timestamp": "2025-12-24T18:55:56.348329+00:00",
        "meta_object_name": "FENGYUN 1C DEB",
        "meta_object_id": "1999-025BCT",
        "meta_epoch": "2025-12-23T03:16:58.668960",
        "meta_mean_motion": 14.42886652,
        "meta_eccentricity": 0.014716,
        "meta_inclination": 99.2722,
        "meta_ra_of_asc_node": 230.9335,
        "meta_arg_of_pericenter": 122.0416,
        "meta_mean_anomaly": 239.5163,
        "meta_ephemeris_type": 0,
        "meta_classification_type": "U",
        "meta_norad_cat_id": 31001,
        "meta_element_set_no": 999,
        "meta_rev_at_epoch": 98356,
        "meta_bstar": 0.00031638475,
        "meta_mean_motion_dot": 1.148e-05,
        "meta_mean_motion_ddot": 0,
        "tle_line1": "1 31001U 99025BCT 25357.13679015  .00001148  00000+0  31638-3 0  9991",
        "tle_line2": "2 31001  99.2722 230.9335 0147160 122.0416 239.5163 14.42886652983564"
      },
      "geometry": {
        "type": "Point",
        "coordinates": [
          -110.43725000089547,
          -60.57102469756368
        ]
      }
    },
    {
      "type": "Feature",
      "properties": {
        "norad_id": 31002,
        "name": "FENGYUN 1C DEB",
        "group": "fengyun-1c-debris",
        "lat": -66.73108276858444,
        "lon": 169.05539829476103,
        "alt_km": 873.9521536289849,
        "timestamp": "2025-12-24T18:55:56.348339+00:00",
        "meta_object_name": "FENGYUN 1C DEB",
        "meta_object_id": "1999-025BCU",
        "meta_epoch": "2025-12-20T21:37:46.056000",
        "meta_mean_motion": 13.9920967,
        "meta_eccentricity": 0.0098565,
        "meta_inclination": 98.885,
        "meta_ra_of_asc_node": 6.6158,
        "meta_arg_of_pericenter": 325.1028,
        "meta_mean_anomaly": 152.4938,
        "meta_ephemeris_type": 0,
        "meta_classification_type": "U",
        "meta_norad_cat_id": 31002,
        "meta_element_set_no": 999,
        "meta_rev_at_epoch": 95719,
        "meta_bstar": 0.00023571,
        "meta_mean_motion_dot": 3.13e-06,
        "meta_mean_motion_ddot": 0,
        "tle_line1": "1 31002U 99025BCU 25354.90122750  .00000313  00000+0  23571-3 0  9993",
        "tle_line2": "2 31002  98.8850   6.6158 0098565 325.1028 152.4938 13.99209670957195"
      },
      "geometry": {
        "type": "Point",
        "coordinates": [
          169.05539829476103,
          -66.73108276858444
        ]
      }
    },
    {
      "type": "Feature",
      "properties": {
        "norad_id": 31003,
        "name": "FENGYUN 1C DEB",
        "group": "fengyun-1c-debris",
        "lat": -81.12495160735928,
        "lon": 161.10300288201364,
        "alt_km": 816.5346971783765,
        "timestamp": "2025-12-24T18:55:56.348349+00:00",
        "meta_object_name": "FENGYUN 1C DEB",
        "meta_object_id": "1999-025BCV",
        "meta_epoch": "2025-12-24T04:11:02.976864",
        "meta_mean_motion": 14.24764002,
        "meta_eccentricity": 0.00420407,
        "meta_inclination": 98.8418,
        "meta_ra_of_asc_node": 75.047,
        "meta_arg_of_pericenter": 182.3597,
        "meta_mean_anomaly": 177.739,
        "meta_ephemeris_type": 0,
        "meta_classification_type": "U",
        "meta_norad_cat_id": 31003,
        "meta_element_set_no": 999,
        "meta_rev_at_epoch": 96672,
        "meta_bstar": 0.0014041467,
        "meta_mean_motion_dot": 3.258e-05,
        "meta_mean_motion_ddot": 0,
        "tle_line1": "1 31003U 99025BCV 25358.17434001  .00003258  00000+0  14041-2 0  9994",
        "tle_line2": "2 31003  98.8418  75.0470 0042040 182.3597 177.7390 14.24764002966729"
      },
      "geometry": {
        "type": "Point",
        "coordinates": [
          161.10300288201364,
          -81.12495160735928
        ]
      }
    }
  ]
}